[{"OBJECT_NAME":"MEASAT 3D","OBJECT_ID":"2022-067B","EPOCH":"2026-03-03T02:31:41.376864","MEAN_MOTION":1.00271484,"ECCENTRICITY":0.0003197,"INCLINATION":0.0623,"RA_OF_ASC_NODE":302.8806,"ARG_OF_PERICENTER":23.8184,"MEAN_ANOMALY":323.5805,"EPHEMERIS_TYPE":0,"CLASSIFICATION_TYPE":"U","NORAD_CAT_ID":52904,"ELEMENT_SET_NO":999,"REV_AT_EPOCH":1358,"BSTAR":0,"MEAN_MOTION_DOT":-2.57e-6,"MEAN_MOTION_DDOT":0},{"OBJECT_NAME":"SES-22","OBJECT_ID":"2022-071A","EPOCH":"2026-03-03T03:08:45.324096","MEAN_MOTION":1.00274571,"ECCENTRICITY":0.0001043,"INCLINATION":0.0184,"RA_OF_ASC_NODE":233.6766,"ARG_OF_PERICENTER":100.3289,"MEAN_ANOMALY":95.0807,"EPHEMERIS_TYPE":0,"CLASSIFICATION_TYPE":"U","NORAD_CAT_ID":52933,"ELEMENT_SET_NO":999,"REV_AT_EPOCH":645,"BSTAR":0,"MEAN_MOTION_DOT":8.9e-7,"MEAN_MOTION_DDOT":0},{"OBJECT_NAME":"WFOV (USA 332)","OBJECT_ID":"2022-073A","EPOCH":"2026-03-02T23:14:17.942208","MEAN_MOTION":1.00268634,"ECCENTRICITY":0.0001426,"INCLINATION":3.4383,"RA_OF_ASC_NODE":79.9015,"ARG_OF_PERICENTER":207.7366,"MEAN_ANOMALY":340.904,"EPHEMERIS_TYPE":0,"CLASSIFICATION_TYPE":"U","NORAD_CAT_ID":52940,"ELEMENT_SET_NO":999,"REV_AT_EPOCH":1330,"BSTAR":0,"MEAN_MOTION_DOT":-3.77e-6,"MEAN_MOTION_DDOT":0},{"OBJECT_NAME":"TIANLIAN 2-03","OBJECT_ID":"2022-078A","EPOCH":"2026-03-03T02:08:36.089376","MEAN_MOTION":1.00272306,"ECCENTRICITY":0.0003349,"INCLINATION":0.4013,"RA_OF_ASC_NODE":72.9435,"ARG_OF_PERICENTER":251.7536,"MEAN_ANOMALY":238.8944,"EPHEMERIS_TYPE":0,"CLASSIFICATION_TYPE":"U","NORAD_CAT_ID":53100,"ELEMENT_SET_NO":999,"REV_AT_EPOCH":1348,"BSTAR":0,"MEAN_MOTION_DOT":5.6e-7,"MEAN_MOTION_DDOT":0},{"OBJECT_NAME":"SBIRS GEO-6 (USA 336)","OBJECT_ID":"2022-092A","EPOCH":"2026-03-02T23:20:02.391360","MEAN_MOTION":1.00271623,"ECCENTRICITY":0.0002309,"INCLINATION":3.44,"RA_OF_ASC_NODE":315.8133,"ARG_OF_PERICENTER":18.8909,"MEAN_ANOMALY":315.0232,"EPHEMERIS_TYPE":0,"CLASSIFICATION_TYPE":"U","NORAD_CAT_ID":53355,"ELEMENT_SET_NO":999,"REV_AT_EPOCH":1316,"BSTAR":0,"MEAN_MOTION_DOT":-3.09e-6,"MEAN_MOTION_DDOT":0},{"OBJECT_NAME":"EUTELSAT KONNECT VHTS","OBJECT_ID":"2022-110A","EPOCH":"2026-03-03T02:06:28.791936","MEAN_MOTION":1.0027062,"ECCENTRICITY":0.0002859,"INCLINATION":0.0587,"RA_OF_ASC_NODE":102.4713,"ARG_OF_PERICENTER":212.0633,"MEAN_ANOMALY":240.6113,"EPHEMERIS_TYPE":0,"CLASSIFICATION_TYPE":"U","NORAD_CAT_ID":53765,"ELEMENT_SET_NO":999,"REV_AT_EPOCH":577,"BSTAR":0,"MEAN_MOTION_DOT":1.0e-8,"MEAN_MOTION_DDOT":0},{"OBJECT_NAME":"ZHONGXING-1E","OBJECT_ID":"2022-112A","EPOCH":"2026-03-03T04:11:39.295968","MEAN_MOTION":1.00269693,"ECCENTRICITY":0.000346,"INCLINATION":0.0175,"RA_OF_ASC_NODE":118.7508,"ARG_OF_PERICENTER":183.2267,"MEAN_ANOMALY":3.2293,"EPHEMERIS_TYPE":0,"CLASSIFICATION_TYPE":"U","NORAD_CAT_ID":53813,"ELEMENT_SET_NO":999,"REV_AT_EPOCH":1278,"BSTAR":0,"MEAN_MOTION_DOT":-1.64e-6,"MEAN_MOTION_DDOT":0},{"OBJECT_NAME":"SES-20","OBJECT_ID":"2022-123A","EPOCH":"2026-03-03T03:41:38.902272","MEAN_MOTION":1.00270541,"ECCENTRICITY":0.0001354,"INCLINATION":0.0142,"RA_OF_ASC_NODE":107.6675,"ARG_OF_PERICENTER":316.6571,"MEAN_ANOMALY":48.8816,"EPHEMERIS_TYPE":0,"CLASSIFICATION_TYPE":"U","NORAD_CAT_ID":53960,"ELEMENT_SET_NO":999,"REV_AT_EPOCH":1247,"BSTAR":0,"MEAN_MOTION_DOT":-1.16e-6,"MEAN_MOTION_DDOT":0},{"OBJECT_NAME":"SES-21","OBJECT_ID":"2022-123B","EPOCH":"2026-03-03T03:49:38.807616","MEAN_MOTION":1.00271093,"ECCENTRICITY":9.91e-5,"INCLINATION":0.0277,"RA_OF_ASC_NODE":64.1006,"ARG_OF_PERICENTER":277.6436,"MEAN_ANOMALY":105.592,"EPHEMERIS_TYPE":0,"CLASSIFICATION_TYPE":"U","NORAD_CAT_ID":53961,"ELEMENT_SET_NO":999,"REV_AT_EPOCH":614,"BSTAR":0,"MEAN_MOTION_DOT":5.4e-7,"MEAN_MOTION_DDOT":0},{"OBJECT_NAME":"GALAXY 33 (G-33)","OBJECT_ID":"2022-128A","EPOCH":"2026-03-03T03:49:38.807616","MEAN_MOTION":1.00274338,"ECCENTRICITY":0.0001979,"INCLINATION":0.0185,"RA_OF_ASC_NODE":201.8468,"ARG_OF_PERICENTER":129.4039,"MEAN_ANOMALY":114.074,"EPHEMERIS_TYPE":0,"CLASSIFICATION_TYPE":"U","NORAD_CAT_ID":54026,"ELEMENT_SET_NO":999,"REV_AT_EPOCH":1267,"BSTAR":0,"MEAN_MOTION_DOT":6.3e-7,"MEAN_MOTION_DDOT":0},{"OBJECT_NAME":"GALAXY 34 (G-34)","OBJECT_ID":"2022-128B","EPOCH":"2026-03-03T03:49:38.807616","MEAN_MOTION":1.00270922,"ECCENTRICITY":0.0001457,"INCLINATION":0.0187,"RA_OF_ASC_NODE":155.5161,"ARG_OF_PERICENTER":188.5908,"MEAN_ANOMALY":105.3224,"EPHEMERIS_TYPE":0,"CLASSIFICATION_TYPE":"U","NORAD_CAT_ID":54027,"ELEMENT_SET_NO":999,"REV_AT_EPOCH":1284,"BSTAR":0,"MEAN_MOTION_DOT":0,"MEAN_MOTION_DDOT":0},{"OBJECT_NAME":"ANGOSAT 2","OBJECT_ID":"2022-131A","EPOCH":"2026-03-03T03:54:55.898208","MEAN_MOTION":1.00272718,"ECCENTRICITY":5.02e-5,"INCLINATION":0.0118,"RA_OF_ASC_NODE":156.5833,"ARG_OF_PERICENTER":290.5425,"MEAN_ANOMALY":155.5183,"EPHEMERIS_TYPE":0,"CLASSIFICATION_TYPE":"U","NORAD_CAT_ID":54033,"ELEMENT_SET_NO":999,"REV_AT_EPOCH":1241,"BSTAR":0,"MEAN_MOTION_DOT":1.2e-6,"MEAN_MOTION_DDOT":0},{"OBJECT_NAME":"EUTELSAT HOTBIRD 13F","OBJECT_ID":"2022-134A","EPOCH":"2026-03-03T02:09:28.505664","MEAN_MOTION":1.00271753,"ECCENTRICITY":0.0002088,"INCLINATION":0.0599,"RA_OF_ASC_NODE":294.3918,"ARG_OF_PERICENTER":60.971,"MEAN_ANOMALY":210.8442,"EPHEMERIS_TYPE":0,"CLASSIFICATION_TYPE":"U","NORAD_CAT_ID":54048,"ELEMENT_SET_NO":999,"REV_AT_EPOCH":1231,"BSTAR":0,"MEAN_MOTION_DOT":7.1e-7,"MEAN_MOTION_DDOT":0},{"OBJECT_NAME":"LDPE-2","OBJECT_ID":"2022-144A","EPOCH":"2026-03-02T22:49:37.896384","MEAN_MOTION":1.00558473,"ECCENTRICITY":6.22e-5,"INCLINATION":5.3848,"RA_OF_ASC_NODE":64.318,"ARG_OF_PERICENTER":220.6715,"MEAN_ANOMALY":319.8704,"EPHEMERIS_TYPE":0,"CLASSIFICATION_TYPE":"U","NORAD_CAT_ID":54219,"ELEMENT_SET_NO":999,"REV_AT_EPOCH":1077,"BSTAR":0,"MEAN_MOTION_DOT":-3.59e-6,"MEAN_MOTION_DDOT":0},{"OBJECT_NAME":"EUTELSAT HOTBIRD 13G","OBJECT_ID":"2022-146A","EPOCH":"2026-03-03T02:09:28.505664","MEAN_MOTION":1.00272107,"ECCENTRICITY":0.0001928,"INCLINATION":0.0509,"RA_OF_ASC_NODE":234.2432,"ARG_OF_PERICENTER":312.7136,"MEAN_ANOMALY":19.2582,"EPHEMERIS_TYPE":0,"CLASSIFICATION_TYPE":"U","NORAD_CAT_ID":54225,"ELEMENT_SET_NO":999,"REV_AT_EPOCH":640,"BSTAR":0,"MEAN_MOTION_DOT":7.1e-7,"MEAN_MOTION_DDOT":0},{"OBJECT_NAME":"ZHONGXING-19","OBJECT_ID":"2022-148A","EPOCH":"2026-03-03T04:34:59.559168","MEAN_MOTION":1.002713,"ECCENTRICITY":0.0002625,"INCLINATION":0.0148,"RA_OF_ASC_NODE":105.5243,"ARG_OF_PERICENTER":232.6086,"MEAN_ANOMALY":54.776,"EPHEMERIS_TYPE":0,"CLASSIFICATION_TYPE":"U","NORAD_CAT_ID":54230,"ELEMENT_SET_NO":999,"REV_AT_EPOCH":1231,"BSTAR":0,"MEAN_MOTION_DOT":-9.7e-7,"MEAN_MOTION_DDOT":0},{"OBJECT_NAME":"GALAXY 31 (G-31)","OBJECT_ID":"2022-153A","EPOCH":"2026-03-03T03:49:38.807616","MEAN_MOTION":1.00272061,"ECCENTRICITY":0.0001497,"INCLINATION":0.0171,"RA_OF_ASC_NODE":204.7217,"ARG_OF_PERICENTER":145.0138,"MEAN_ANOMALY":107.5864,"EPHEMERIS_TYPE":0,"CLASSIFICATION_TYPE":"U","NORAD_CAT_ID":54243,"ELEMENT_SET_NO":999,"REV_AT_EPOCH":606,"BSTAR":0,"MEAN_MOTION_DOT":-2.0e-8,"MEAN_MOTION_DDOT":0}]
